NORAD_CAT_ID,OBJECT_NAME,OBJECT_TYPE,EPOCH,MEAN_MOTION,ECCENTRICITY,INCLINATION,RA_OF_ASC_NODE,ARG_OF_PERICENTER,MEAN_ANOMALY,BSTAR,MEAN_MOTION_DOT,MEAN_MOTION_DDOT,TLE_LINE0,TLE_LINE1,TLE_LINE2,SEMIMAJOR_AXIS,PERIOD,APOGEE,PERIGEE,DECAYED
49756.0,STARLINK-3207,PAYLOAD,2022-08-22 15:03:30,15.08827932,0.0001796,53.216,192.8799,65.5794,294.5385,1.8338e-05,4e-08,0.0,0 STARLINK-3207,1 49756U 21115AJ  22234.62744179  .00000004  00000-0  18338-4 0  9995,2 49756  53.2160 192.8799 0001796  65.5794 294.5385 15.08827932 40166,6917.917,95.438,541.025,538.54,0.0
49756.0,STARLINK-3207,PAYLOAD,2022-08-23 03:46:35,15.08834415,0.0001791,53.216,190.5007,66.3443,293.7737,7.6098e-06,-1.67e-06,0.0,0 STARLINK-3207,1 49756U 21115AJ  22235.15736017 -.00000167  00000-0  76098-5 0  9995,2 49756  53.2160 190.5007 0001791  66.3443 293.7737 15.08834415 41356,6917.897,95.438,541.001,538.523,0.0
49756.0,STARLINK-3207,PAYLOAD,2022-08-23 06:57:22,15.08834314,0.0001798,53.216,189.906,66.2809,293.8371,6.6214e-06,-1.83e-06,0.0,0 STARLINK-3207,1 49756U 21115AJ  22235.28984070 -.00000183  00000-0  66214-5 0  9990,2 49756  53.2160 189.9060 0001798  66.2809 293.8371 15.08834314 40261,6917.898,95.438,541.007,538.519,0.0
49756.0,STARLINK-3207,PAYLOAD,2022-08-24 05:12:45,15.08836248,0.0001809,53.2159,185.7431,63.352,296.7657,0.00011616,1.561e-05,0.0,0 STARLINK-3207,1 49756U 21115AJ  22236.21719763  .00001561  00000-0  11616-3 0  9993,2 49756  53.2159 185.7431 0001809  63.3520 296.7657 15.08836248 41512,6917.892,95.438,541.008,538.505,0.0
49756.0,STARLINK-3207,PAYLOAD,2022-08-24 06:48:09,15.08836221,0.0001815,53.2159,185.4458,63.2516,296.8662,0.00011443,1.533e-05,0.0,0 STARLINK-3207,1 49756U 21115AJ  22236.28343791  .00001533  00000-0  11443-3 0  9991,2 49756  53.2159 185.4458 0001815  63.2516 296.8662 15.08836221 40415,6917.892,95.438,541.013,538.501,0.0
49756.0,STARLINK-3207,PAYLOAD,2022-08-24 13:09:41,15.08839309,0.0001824,53.216,184.2564,63.042,297.0758,0.00011662,1.568e-05,0.0,0 STARLINK-3207,1 49756U 21115AJ  22236.54839607  .00001568  00000-0  11662-3 0  9997,2 49756  53.2160 184.2564 0001824  63.0420 297.0758 15.08839309 40457,6917.8830000000025,95.438,541.009,538.486,0.0
49756.0,STARLINK-3207,PAYLOAD,2022-08-25 03:28:10,15.08831609,0.0001797,53.216,181.5804,65.9455,294.1725,-1.8082e-06,-3.17e-06,0.0,0 STARLINK-3207,1 49756U 21115AJ  22237.14456609 -.00000317  00000-0 -18082-5 0  9999,2 49756  53.2160 181.5804 0001797  65.9455 294.1725 15.08831609 41652,6917.906,95.438,541.014,538.528,0.0
49756.0,STARLINK-3207,PAYLOAD,2022-08-25 13:00:29,15.08833306,0.0001801,53.2159,179.7964,65.8205,294.2976,-1.0439e-05,-4.54e-06,0.0,0 STARLINK-3207,1 49756U 21115AJ  22237.54200670 -.00000454  00000-0 -10439-4 0  9997,2 49756  53.2159 179.7964 0001801  65.8205 294.2976 15.08833306 40603,6917.901,95.438,541.012,538.52,0.0
49756.0,STARLINK-3207,PAYLOAD,2022-08-26 03:18:57,15.08839185,0.0001817,53.2159,177.1201,65.5784,294.5398,-1.3246e-05,-4.99e-06,0.0,0 STARLINK-3207,1 49756U 21115AJ  22238.13816424 -.00000499  00000-0 -13246-4 0  9991,2 49756  53.2159 177.1201 0001817  65.5784 294.5398 15.08839185 41800,6917.8830000000025,95.438,541.005,538.491,0.0
49756.0,STARLINK-3207,PAYLOAD,2022-08-26 06:29:43,15.08839984,0.0001844999999999,53.2159,176.5253,64.3173,295.8009,-5.9342e-06,-3.83e-06,0.0,0 STARLINK-3207,1 49756U 21115AJ  22238.27064362 -.00000383  00000-0 -59342-5 0  9992,2 49756  53.2159 176.5253 0001845  64.3173 295.8009 15.08839984 40719,6917.88,95.438,541.0219999999998,538.469,0.0
49756.0,STARLINK-3207,PAYLOAD,2022-08-27 04:45:06,15.08842249,0.0001894,53.216,172.362,62.9603,297.1582,0.00011946,1.614e-05,0.0,0 STARLINK-3207,1 49756U 21115AJ  22239.19799740  .00001614  00000-0  11946-3 0  9991,2 49756  53.2160 172.3620 0001894  62.9603 297.1582 15.08842249 40853,6917.874,95.437,541.049,538.428,0.0
49756.0,STARLINK-3207,PAYLOAD,2022-08-28 04:35:54,15.08842727,0.0001929,53.216,167.9015,63.6924,296.4266,4.0036e-05,3.49e-06,0.0,0 STARLINK-3207,1 49756U 21115AJ  22240.19159818  .00000349  00000-0  40036-4 0  9996,2 49756  53.2160 167.9015 0001929  63.6924 296.4266 15.08842727 41004,6917.871999999999,95.437,541.072,538.403,0.0
49756.0,STARLINK-3207,PAYLOAD,2022-08-28 18:54:21,15.08848271,0.000185,53.2158,165.2243,67.232,292.8867,4.3276e-05,4.01e-06,0.0,0 STARLINK-3207,1 49756U 21115AJ  22240.78775185  .00000401  00000-0  43276-4 0  9990,2 49756  53.2158 165.2243 0001850  67.2320 292.8867 15.08848271 42208,6917.855,95.437,541.0,538.44,0.0
49756.0,STARLINK-3207,PAYLOAD,2022-08-29 04:26:40,15.08843706,0.0001851999999999,53.2164,163.4409,66.1222,293.9964,-3.8056e-05,-8.94e-06,0.0,0 STARLINK-3207,1 49756U 21115AJ  22241.18519559 -.00000894  00000-0 -38056-4 0  9994,2 49756  53.2164 163.4409 0001852  66.1222 293.9964 15.08843706 41151,6917.869000000002,95.437,541.015,538.453,0.0
49756.0,STARLINK-3207,PAYLOAD,2022-08-30 04:17:28,15.08831032,0.0001824,53.2165,158.9804,65.9239,294.1944,-7.9169e-05,-1.548e-05,0.0,0 STARLINK-3207,1 49756U 21115AJ  22242.17880625 -.00001548  00000-0 -79169-4 0  9996,2 49756  53.2165 158.9804 0001824  65.9239 294.1944 15.08831032 41301,6917.908,95.438,541.035,538.511,0.0
49756.0,STARLINK-3207,PAYLOAD,2022-08-30 21:46:43,15.08831374,0.0001938,53.2157,155.71,63.2575,296.8615,3.1332e-05,2.1e-06,0.0,0 STARLINK-3207,1 49756U 21115AJ  22242.90744474  .00000210  00000-0  31332-4 0  9991,2 49756  53.2157 155.7100 0001938  63.2575 296.8615 15.08831374 41411,6917.906999999997,95.438,541.112,538.431,0.0
49756.0,STARLINK-3207,PAYLOAD,2022-08-31 00:57:29,15.08835603,0.0001801,53.216,155.1149,64.2114,295.9064,5.0442e-05,5.15e-06,0.0,0 STARLINK-3207,1 49756U 21115AJ  22243.03992155  .00000515  00000-0  50442-4 0  9998,2 49756  53.2160 155.1149 0001801  64.2114 295.9064 15.08835603 41430,6917.894,95.438,541.005,538.513,0.0
49756.0,STARLINK-3207,PAYLOAD,2022-08-31 18:26:44,15.08824384,0.000183,53.2161,151.8441,66.3921,293.7263,4.2876e-05,3.94e-06,0.0,0 STARLINK-3207,1 49756U 21115AJ  22243.76857306  .00000394  00000-0  42876-4 0  9993,2 49756  53.2161 151.8441 0001830  66.3921 293.7263 15.08824384 42656,6917.928000000001,95.439,541.059,538.5269999999998,0.0
49756.0,STARLINK-3207,PAYLOAD,2022-09-01 10:20:36,15.08830004,0.000182,53.2162,148.8705,66.8437,293.2746,5.8717e-05,6.46e-06,0.0,0 STARLINK-3207,1 49756U 21115AJ  22244.43097557  .00000646  00000-0  58717-4 0  9993,2 49756  53.2162 148.8705 0001820  66.8437 293.2746 15.08830004 41647,6917.911,95.438,541.035,538.5169999999998,0.0
49756.0,STARLINK-3207,PAYLOAD,2022-09-02 02:14:27,15.08839709,0.0001813,53.216,145.8969,65.6939,294.4243,4.6749e-05,4.56e-06,0.0,0 STARLINK-3207,1 49756U 21115AJ  22245.09337163  .00000456  00000-0  46749-4 0  9997,2 49756  53.2160 145.8969 0001813  65.6939 294.4243 15.08839709 42850,6917.880999999999,95.438,541.0,538.492,0.0
49756.0,STARLINK-3207,PAYLOAD,2022-09-02 10:11:22,15.08842374,0.0001813,53.2159,144.41,65.7212,294.397,8.8459e-05,1.12e-05,0.0,0 STARLINK-3207,1 49756U 21115AJ  22245.42456901  .00001120  00000-0  88459-4 0  9999,2 49756  53.2159 144.4100 0001813  65.7212 294.3970 15.08842374 41795,6917.873000000001,95.437,540.992,538.484,0.0
49756.0,STARLINK-3207,PAYLOAD,2022-09-03 02:05:14,15.08835967,0.0001804,53.2164,141.4362,65.381,294.737,7.993e-05,9.84e-06,0.0,0 STARLINK-3207,1 49756U 21115AJ  22246.08697307  .00000984  00000-0  79930-4 0  9990,2 49756  53.2164 141.4362 0001804  65.3810 294.7370 15.08835967 41897,6917.893,95.438,541.006,538.51,0.0
49756.0,STARLINK-3207,PAYLOAD,2022-09-03 21:09:51,15.08841261,0.0001746,53.2161,137.8684,63.8888,296.2283,3.2954e-05,2.36e-06,0.0,0 STARLINK-3207,1 49756U 21115AJ  22246.88185168  .00000236  00000-0  32954-4 0  9990,2 49756  53.2161 137.8684 0001746  63.8888 296.2283 15.08841261 43125,6917.877,95.437,540.9490000000002,538.534,0.0
49756.0,STARLINK-3207,PAYLOAD,2022-09-04 09:52:57,15.08842135,0.0001704,53.2161,135.4895,65.4402,294.6768,-8.154500000000001e-06,-4.18e-06,0.0,0 STARLINK-3207,1 49756U 21115AJ  22247.41177119 -.00000418  00000-0 -81545-5 0  9992,2 49756  53.2161 135.4895 0001704  65.4402 294.6768 15.08842135 42093,6917.874,95.437,540.918,538.56,0.0
49756.0,STARLINK-3207,PAYLOAD,2022-09-04 16:14:29,15.08848405,0.0001646,53.2161,134.2998,63.7068,296.4093,4.3783e-05,4.09e-06,0.0,0 STARLINK-3207,1 49756U 21115AJ  22247.67672522  .00000409  00000-0  43783-4 0  9997,2 49756  53.2161 134.2998 0001646  63.7068 296.4093 15.08848405 42130,6917.855,95.437,540.8580000000002,538.581,0.0
49756.0,STARLINK-3207,PAYLOAD,2022-09-05 00:11:23,15.08854084,0.0001704,53.2161,132.813,64.7998,295.317,0.0001733,2.472e-05,0.0,0 STARLINK-3207,1 49756U 21115AJ  22248.00791562  .00002472  00000-0  17330-3 0  9991,2 49756  53.2161 132.8130 0001704  64.7998 295.3170 15.08854084 42189,6917.837,95.437,540.881,538.524,0.0
49756.0,STARLINK-3207,PAYLOAD,2022-09-05 16:05:15,15.08849846,0.0001689,53.2155,129.839,62.2399,297.8764,0.00010918,1.4499999999999992e-05,0.0,0 STARLINK-3207,1 49756U 21115AJ  22248.67031574  .00001450  00000-0  10918-3 0  9994,2 49756  53.2155 129.8390 0001689  62.2399 297.8764 15.08849846 43396,6917.85,95.437,540.884,538.547,0.0
49756.0,STARLINK-3207,PAYLOAD,2022-09-05 20:51:25,15.08844158,0.0001786999999999,53.2158,128.9464,68.6543,291.464,4.6597e-05,4.54e-06,0.0,0 STARLINK-3207,1 49756U 21115AJ  22248.86904012  .00000454  00000-0  46597-4 0  9997,2 49756  53.2158 128.9464 0001787  68.6543 291.4640 15.08844158 42316,6917.868,95.437,540.969,538.496,0.0
49756.0,STARLINK-3207,PAYLOAD,2022-09-05 22:26:48,15.08854606,0.0001802,53.2167,128.6494,74.0419,286.0772,-0.00013701,-2.469e-05,0.0,0 STARLINK-3207,1 49756U 21115AJ  22248.93527842 -.00002469  00000-0 -13701-3 0  9997,2 49756  53.2167 128.6494 0001802  74.0419 286.0772 15.08854606 42323,6917.8359999999975,95.437,540.947,538.4540000000002,0.0
